STARLINK-31466          
1 59420U 24064Y   26068.31033140  .00002868  00000+0  11378-3 0  9999
2 59420  43.0047  58.6662 0001868 251.4597 108.6052 15.27564482109162
FLOCK 4G-36             
1 62675U 25009BU  26068.70726311  .00013573  00000+0  51122-3 0  9993
2 62675  97.4053 151.0513 0003474 324.2456  35.8550 15.27209548 63701
